{
  "type": "FeatureCollection",
  "features": [
    {
      "type": "Feature",
      "properties": {
        "norad_id": 34588,
        "name": "COSMOS 2251 DEB",
        "group": "cosmos-2251-debris",
        "lat": -58.65076245519006,
        "lon": -110.57440062226478,
        "alt_km": 747.2814723088322,
        "timestamp": "2025-12-07T18:50:17.109530+00:00",
        "meta_object_name": "COSMOS 2251 DEB",
        "meta_object_id": "1993-036WA",
        "meta_epoch": "2025-12-07T06:30:10.238112",
        "meta_mean_motion": 14.41994989,
        "meta_eccentricity": 0.00190508,
        "meta_inclination": 74.0442,
        "meta_ra_of_asc_node": 278.3882,
        "meta_arg_of_pericenter": 331.6089,
        "meta_mean_anomaly": 178.8839,
        "meta_ephemeris_type": 0,
        "meta_classification_type": "U",
        "meta_norad_cat_id": 34588,
        "meta_element_set_no": 999,
        "meta_rev_at_epoch": 87871,
        "meta_bstar": 0.00092510619,
        "meta_mean_motion_dot": 3.016e-05,
        "meta_mean_motion_ddot": 0,
        "tle_line1": "1 34588U 93036WA  25341.27095183  .00003016  00000+0  92511-3 0  9999",
        "tle_line2": "2 34588  74.0442 278.3882 0019050 331.6089 178.8839 14.41994989878717"
      },
      "geometry": {
        "type": "Point",
        "coordinates": [
          -110.57440062226478,
          -58.65076245519006
        ]
      }
    },
    {
      "type": "Feature",
      "properties": {
        "norad_id": 34589,
        "name": "COSMOS 2251 DEB",
        "group": "cosmos-2251-debris",
        "lat": 56.594168081224794,
        "lon": 90.40097560903178,
        "alt_km": 819.3435560578946,
        "timestamp": "2025-12-07T18:50:17.109540+00:00",
        "meta_object_name": "COSMOS 2251 DEB",
        "meta_object_id": "1993-036WB",
        "meta_epoch": "2025-12-05T12:58:27.050304",
        "meta_mean_motion": 13.86044835,
        "meta_eccentricity": 0.02516941,
        "meta_inclination": 73.9247,
        "meta_ra_of_asc_node": 68.2981,
        "meta_arg_of_pericenter": 13.0786,
        "meta_mean_anomaly": 10.6469,
        "meta_ephemeris_type": 0,
        "meta_classification_type": "U",
        "meta_norad_cat_id": 34589,
        "meta_element_set_no": 999,
        "meta_rev_at_epoch": 84612,
        "meta_bstar": 0.00038916081,
        "meta_mean_motion_dot": 5.51e-06,
        "meta_mean_motion_ddot": 0,
        "tle_line1": "1 34589U 93036WB  25339.54059086  .00000551  00000+0  38916-3 0  9999",
        "tle_line2": "2 34589  73.9247  68.2981 0251694  13.0786  10.6469 13.86044835846128"
      },
      "geometry": {
        "type": "Point",
        "coordinates": [
          90.40097560903178,
          56.594168081224794
        ]
      }
    },
    {
      "type": "Feature",
      "properties": {
        "norad_id": 34590,
        "name": "COSMOS 2251 DEB",
        "group": "cosmos-2251-debris",
        "lat": -69.85212659385881,
        "lon": -156.83158110977837,
        "alt_km": 760.3310871585309,
        "timestamp": "2025-12-07T18:50:17.109550+00:00",
        "meta_object_name": "COSMOS 2251 DEB",
        "meta_object_id": "1993-036WC",
        "meta_epoch": "2025-12-07T06:11:41.516160",
        "meta_mean_motion": 14.54816265,
        "meta_eccentricity": 0.00679814,
        "meta_inclination": 74.0435,
        "meta_ra_of_asc_node": 332.9206,
        "meta_arg_of_pericenter": 104.1262,
        "meta_mean_anomaly": 275.1519,
        "meta_ephemeris_type": 0,
        "meta_classification_type": "U",
        "meta_norad_cat_id": 34590,
        "meta_element_set_no": 999,
        "meta_rev_at_epoch": 89041,
        "meta_bstar": 0.00022826418,
        "meta_mean_motion_dot": 9.8e-06,
        "meta_mean_motion_ddot": 0,
        "tle_line1": "1 34590U 93036WC  25341.25811940  .00000980  00000+0  22826-3 0  9996",
        "tle_line2": "2 34590  74.0435 332.9206 0067981 104.1262 275.1519 14.54816265890412"
      },
      "geometry": {
        "type": "Point",
        "coordinates": [
          -156.83158110977837,
          -69.85212659385881
        ]
      }
    },
    {
      "type": "Feature",
      "properties": {
        "norad_id": 34609,
        "name": "COSMOS 2251 DEB",
        "group": "cosmos-2251-debris",
        "lat": -66.97228372088027,
        "lon": -20.83403323467788,
        "alt_km": 811.3831043766777,
        "timestamp": "2025-12-07T18:50:17.109559+00:00",
        "meta_object_name": "COSMOS 2251 DEB",
        "meta_object_id": "1993-036WE",
        "meta_epoch": "2025-12-07T03:17:26.246976",
        "meta_mean_motion": 14.21762662,
        "meta_eccentricity": 0.01447888,
        "meta_inclination": 73.7332,
        "meta_ra_of_asc_node": 116.9616,
        "meta_arg_of_pericenter": 337.3488,
        "meta_mean_anomaly": 203.3051,
        "meta_ephemeris_type": 0,
        "meta_classification_type": "U",
        "meta_norad_cat_id": 34609,
        "meta_element_set_no": 999,
        "meta_rev_at_epoch": 86552,
        "meta_bstar": 0.001140319,
        "meta_mean_motion_dot": 2.763e-05,
        "meta_mean_motion_ddot": 0,
        "tle_line1": "1 34609U 93036WE  25341.13710934  .00002763  00000+0  11403-2 0  9994",
        "tle_line2": "2 34609  73.7332 116.9616 0144788 337.3488 203.3051 14.21762662865524"
      },
      "geometry": {
        "type": "Point",
        "coordinates": [
          -20.83403323467788,
          -66.97228372088027
        ]
      }
    },
    {
      "type": "Feature",
      "properties": {
        "norad_id": 34610,
        "name": "COSMOS 2251 DEB",
        "group": "cosmos-2251-debris",
        "lat": -36.66330644411368,
        "lon": -101.3078817231549,
        "alt_km": 852.8714131486613,
        "timestamp": "2025-12-07T18:50:17.109569+00:00",
        "meta_object_name": "COSMOS 2251 DEB",
        "meta_object_id": "1993-036WF",
        "meta_epoch": "2025-12-07T05:21:56.980224",
        "meta_mean_motion": 14.06993956,
        "meta_eccentricity": 0.01801596,
        "meta_inclination": 74.0199,
        "meta_ra_of_asc_node": 271.9919,
        "meta_arg_of_pericenter": 43.7956,
        "meta_mean_anomaly": 317.7307,
        "meta_ephemeris_type": 0,
        "meta_classification_type": "U",
        "meta_norad_cat_id": 34610,
        "meta_element_set_no": 999,
        "meta_rev_at_epoch": 85482,
        "meta_bstar": 0.0033577989,
        "meta_mean_motion_dot": 6.478e-05,
        "meta_mean_motion_ddot": 0,
        "tle_line1": "1 34610U 93036WF  25341.22357616  .00006478  00000+0  33578-2 0  9994",
        "tle_line2": "2 34610  74.0199 271.9919 0180159  43.7956 317.7307 14.06993956854829"
      },
      "geometry": {
        "type": "Point",
        "coordinates": [
          -101.3078817231549,
          -36.66330644411368
        ]
      }
    },
    {
      "type": "Feature",
      "properties": {
        "norad_id": 34611,
        "name": "COSMOS 2251 DEB",
        "group": "cosmos-2251-debris",
        "lat": -13.156059152414956,
        "lon": 106.72199602140093,
        "alt_km": 683.351994903066,
        "timestamp": "2025-12-07T18:50:17.109580+00:00",
        "meta_object_name": "COSMOS 2251 DEB",
        "meta_object_id": "1993-036WG",
        "meta_epoch": "2025-12-07T04:27:33.566688",
        "meta_mean_motion": 14.69338736,
        "meta_eccentricity": 0.00233406,
        "meta_inclination": 74.0534,
        "meta_ra_of_asc_node": 111.7127,
        "meta_arg_of_pericenter": 155.2905,
        "meta_mean_anomaly": 263.3925,
        "meta_ephemeris_type": 0,
        "meta_classification_type": "U",
        "meta_norad_cat_id": 34611,
        "meta_element_set_no": 999,
        "meta_rev_at_epoch": 88309,
        "meta_bstar": 0.0029687792,
        "meta_mean_motion_dot": 0.00017627,
        "meta_mean_motion_ddot": 0,
        "tle_line1": "1 34611U 93036WG  25341.18580517  .00017627  00000+0  29688-2 0  9993",
        "tle_line2": "2 34611  74.0534 111.7127 0023340 155.2905 263.3925 14.69338736883097"
      },
      "geometry": {
        "type": "Point",
        "coordinates": [
          106.72199602140093,
          -13.156059152414956
        ]
      }
    },
    {
      "type": "Feature",
      "properties": {
        "norad_id": 34613,
        "name": "COSMOS 2251 DEB",
        "group": "cosmos-2251-debris",
        "lat": 56.32770677376714,
        "lon": 81.97435878263674,
        "alt_km": 718.9952161500778,
        "timestamp": "2025-12-07T18:50:17.109590+00:00",
        "meta_object_name": "COSMOS 2251 DEB",
        "meta_object_id": "1993-036WJ",
        "meta_epoch": "2025-12-07T07:11:52.817568",
        "meta_mean_motion": 14.2638441,
        "meta_eccentricity": 0.01101034,
        "meta_inclination": 73.9641,
        "meta_ra_of_asc_node": 288.4302,
        "meta_arg_of_pericenter": 121.6678,
        "meta_mean_anomaly": 28.8018,
        "meta_ephemeris_type": 0,
        "meta_classification_type": "U",
        "meta_norad_cat_id": 34613,
        "meta_element_set_no": 999,
        "meta_rev_at_epoch": 86385,
        "meta_bstar": 0.001957323,
        "meta_mean_motion_dot": 4.995e-05,
        "meta_mean_motion_ddot": 0,
        "tle_line1": "1 34613U 93036WJ  25341.29991687  .00004995  00000+0  19573-2 0  9997",
        "tle_line2": "2 34613  73.9641 288.4302 0110103 121.6678  28.8018 14.26384410863853"
      },
      "geometry": {
        "type": "Point",
        "coordinates": [
          81.97435878263674,
          56.32770677376714
        ]
      }
    }
  ]
}